[{"CCSDS_OMM_VERS":"2.0","COMMENT":"GENERATED VIA SPACE-TRACK.ORG API","CREATION_DATE":"2021-10-02T19:12:03","ORIGINATOR":"18 SPCS","OBJECT_NAME":"TBA - TO BE ASSIGNED","OBJECT_ID":"1976-067","CENTER_NAME":"EARTH","REF_FRAME":"TEME","TIME_SYSTEM":"UTC","MEAN_ELEMENT_THEORY":"SGP4","EPOCH":"2021-10-02T10:41:26.796192","MEAN_MOTION":"12.44724334","ECCENTRICITY":"0.06278830","INCLINATION":"66.0373","RA_OF_ASC_NODE":"275.7293","ARG_OF_PERICENTER":"70.5889","MEAN_ANOMALY":"73.7078","EPHEMERIS_TYPE":"0","CLASSIFICATION_TYPE":"U","NORAD_CAT_ID":"87616","ELEMENT_SET_NO":"999","REV_AT_EPOCH":"34537","BSTAR":"0.00086809000000","MEAN_MOTION_DOT":"0.00000194","MEAN_MOTION_DDOT":"0.0000000000000","SEMIMAJOR_AXIS":"7864.777","PERIOD":"115.688","APOAPSIS":"1980.457","PERIAPSIS":"992.826","OBJECT_TYPE":"TBA","RCS_SIZE":null,"COUNTRY_CODE":null,"LAUNCH_DATE":null,"SITE":null,"DECAY_DATE":null,"FILE":"3140729","GP_ID":"185993253","TLE_LINE0":"0 TBA - TO BE ASSIGNED","TLE_LINE1":"1 87616U 76067    21275.44544903 +.00000194 +00000+0 +86809-3 0  9991","TLE_LINE2":"2 87616  66.0373 275.7293 0627883  70.5889  73.7078 12.44724334345379"},{"CCSDS_OMM_VERS":"2.0","COMMENT":"GENERATED VIA SPACE-TRACK.ORG API","CREATION_DATE":"2021-05-20T22:07:28","ORIGINATOR":"18 SPCS","OBJECT_NAME":"TBA - TO BE ASSIGNED","OBJECT_ID":"","CENTER_NAME":"EARTH","REF_FRAME":"TEME","TIME_SYSTEM":"UTC","MEAN_ELEMENT_THEORY":"SGP4","EPOCH":"2021-05-20T12:52:50.093760","MEAN_MOTION":"13.44837799","ECCENTRICITY":"0.00925590","INCLINATION":"63.1333","RA_OF_ASC_NODE":"331.9907","ARG_OF_PERICENTER":"85.8041","MEAN_ANOMALY":"275.3554","EPHEMERIS_TYPE":"0","CLASSIFICATION_TYPE":"U","NORAD_CAT_ID":"87594","ELEMENT_SET_NO":"999","REV_AT_EPOCH":"36793","BSTAR":"0.00006886900000","MEAN_MOTION_DOT":"-0.00000050","MEAN_MOTION_DDOT":"0.0000000000000","SEMIMAJOR_AXIS":"7469.449","PERIOD":"107.076","APOAPSIS":"1160.451","PERIAPSIS":"1022.178","OBJECT_TYPE":"TBA","RCS_SIZE":null,"COUNTRY_CODE":null,"LAUNCH_DATE":null,"SITE":null,"DECAY_DATE":null,"FILE":"3039334","GP_ID":"177538192","TLE_LINE0":"0 TBA - TO BE ASSIGNED","TLE_LINE1":"1 87594U          21140.53669090 -.00000050 +00000+0 +68869-4 0  9995","TLE_LINE2":"2 87594  63.1333 331.9907 0092559  85.8041 275.3554 13.44837799367936"},{"CCSDS_OMM_VERS":"2.0","COMMENT":"GENERATED VIA SPACE-TRACK.ORG API","CREATION_DATE":"2020-04-09T18:12:43","ORIGINATOR":"18 SPCS","OBJECT_NAME":"TBA - TO BE ASSIGNED","OBJECT_ID":null,"CENTER_NAME":"EARTH","REF_FRAME":"TEME","TIME_SYSTEM":"UTC","MEAN_ELEMENT_THEORY":"SGP4","EPOCH":"2020-04-08T18:55:52.755456","MEAN_MOTION":"14.16138683","ECCENTRICITY":"0.00253300","INCLINATION":"81.2205","RA_OF_ASC_NODE":"126.3827","ARG_OF_PERICENTER":"24.3220","MEAN_ANOMALY":"335.9143","EPHEMERIS_TYPE":"0","CLASSIFICATION_TYPE":"U","NORAD_CAT_ID":"87591","ELEMENT_SET_NO":"999","REV_AT_EPOCH":"27911","BSTAR":"0.00042283000000","MEAN_MOTION_DOT":"0.00000851","MEAN_MOTION_DDOT":"0.0000000000000","SEMIMAJOR_AXIS":"7216.578","PERIOD":"101.684","APOAPSIS":"856.722","PERIAPSIS":"820.163","OBJECT_TYPE":"TBA","RCS_SIZE":null,"COUNTRY_CODE":null,"LAUNCH_DATE":null,"SITE":null,"DECAY_DATE":null,"FILE":"2731277","GP_ID":"151899147","TLE_LINE0":"0 TBA - TO BE ASSIGNED","TLE_LINE1":"1 87591U          20099.78880504 +.00000851 +00000+0 +42283-3 0  9995","TLE_LINE2":"2 87591  81.2205 126.3827 0025330  24.3220 335.9143 14.16138683279114"},{"CCSDS_OMM_VERS":"2.0","COMMENT":"GENERATED VIA SPACE-TRACK.ORG API","CREATION_DATE":"2021-10-02T19:12:03","ORIGINATOR":"18 SPCS","OBJECT_NAME":"TBA - TO BE ASSIGNED","OBJECT_ID":"1999-025","CENTER_NAME":"EARTH","REF_FRAME":"TEME","TIME_SYSTEM":"UTC","MEAN_ELEMENT_THEORY":"SGP4","EPOCH":"2021-10-02T13:59:01.736736","MEAN_MOTION":"14.07627281","ECCENTRICITY":"0.00262710","INCLINATION":"98.9746","RA_OF_ASC_NODE":"314.9044","ARG_OF_PERICENTER":"273.5485","MEAN_ANOMALY":"240.5572","EPHEMERIS_TYPE":"0","CLASSIFICATION_TYPE":"U","NORAD_CAT_ID":"87590","ELEMENT_SET_NO":"999","REV_AT_EPOCH":"93953","BSTAR":"0.00019019000000","MEAN_MOTION_DOT":"0.00000277","MEAN_MOTION_DDOT":"0.0000000000000","SEMIMAJOR_AXIS":"7245.640","PERIOD":"102.300","APOAPSIS":"886.540","PERIAPSIS":"848.470","OBJECT_TYPE":"TBA","RCS_SIZE":null,"COUNTRY_CODE":null,"LAUNCH_DATE":null,"SITE":null,"DECAY_DATE":null,"FILE":"3140729","GP_ID":"185993356","TLE_LINE0":"0 TBA - TO BE ASSIGNED","TLE_LINE1":"1 87590U 99025    21275.58265899 +.00000277 +00000+0 +19019-3 0  9991","TLE_LINE2":"2 87590  98.9746 314.9044 0026271 273.5485 240.5572 14.07627281939533"},{"CCSDS_OMM_VERS":"2.0","COMMENT":"GENERATED VIA SPACE-TRACK.ORG API","CREATION_DATE":"2021-10-02T19:12:03","ORIGINATOR":"18 SPCS","OBJECT_NAME":"TBA - TO BE ASSIGNED","OBJECT_ID":"1993-036","CENTER_NAME":"EARTH","REF_FRAME":"TEME","TIME_SYSTEM":"UTC","MEAN_ELEMENT_THEORY":"SGP4","EPOCH":"2021-10-02T02:12:34.234560","MEAN_MOTION":"14.38869799","ECCENTRICITY":"0.00198320","INCLINATION":"74.0251","RA_OF_ASC_NODE":"53.7403","ARG_OF_PERICENTER":"101.8030","MEAN_ANOMALY":"258.5350","EPHEMERIS_TYPE":"0","CLASSIFICATION_TYPE":"U","NORAD_CAT_ID":"87587","ELEMENT_SET_NO":"999","REV_AT_EPOCH":"41329","BSTAR":"0.00002655600000","MEAN_MOTION_DOT":"0.00000056","MEAN_MOTION_DDOT":"0.0000000000000","SEMIMAJOR_AXIS":"7140.372","PERIOD":"100.079","APOAPSIS":"776.398","PERIAPSIS":"748.076","OBJECT_TYPE":"TBA","RCS_SIZE":null,"COUNTRY_CODE":null,"LAUNCH_DATE":null,"SITE":null,"DECAY_DATE":null,"FILE":"3140729","GP_ID":"185993500","TLE_LINE0":"0 TBA - TO BE ASSIGNED","TLE_LINE1":"1 87587U 93036    21275.09206290 +.00000056 +00000+0 +26556-4 0  9999","TLE_LINE2":"2 87587  74.0251  53.7403 0019832 101.8030 258.5350 14.38869799413295"},{"CCSDS_OMM_VERS":"2.0","COMMENT":"GENERATED VIA SPACE-TRACK.ORG API","CREATION_DATE":"2021-05-20T22:07:28","ORIGINATOR":"18 SPCS","OBJECT_NAME":"TBA - TO BE ASSIGNED","OBJECT_ID":"","CENTER_NAME":"EARTH","REF_FRAME":"TEME","TIME_SYSTEM":"UTC","MEAN_ELEMENT_THEORY":"SGP4","EPOCH":"2021-05-20T08:22:55.536096","MEAN_MOTION":"14.77202928","ECCENTRICITY":"0.00648870","INCLINATION":"73.9881","RA_OF_ASC_NODE":"19.9335","ARG_OF_PERICENTER":"96.2966","MEAN_ANOMALY":"264.5604","EPHEMERIS_TYPE":"0","CLASSIFICATION_TYPE":"U","NORAD_CAT_ID":"87574","ELEMENT_SET_NO":"999","REV_AT_EPOCH":"28705","BSTAR":"0.00174100000000","MEAN_MOTION_DOT":"0.00012758","MEAN_MOTION_DDOT":"0.0000000000000","SEMIMAJOR_AXIS":"7016.304","PERIOD":"97.482","APOAPSIS":"683.696","PERIAPSIS":"592.642","OBJECT_TYPE":"TBA","RCS_SIZE":null,"COUNTRY_CODE":null,"LAUNCH_DATE":null,"SITE":null,"DECAY_DATE":null,"FILE":"3039334","GP_ID":"177538314","TLE_LINE0":"0 TBA - TO BE ASSIGNED","TLE_LINE1":"1 87574U          21140.34925389 +.00012758 +00000+0 +17410-2 0  9999","TLE_LINE2":"2 87574  73.9881  19.9335 0064887  96.2966 264.5604 14.77202928287051"},{"CCSDS_OMM_VERS":"2.0","COMMENT":"GENERATED VIA SPACE-TRACK.ORG API","CREATION_DATE":"2021-10-02T19:12:03","ORIGINATOR":"18 SPCS","OBJECT_NAME":"TBA - TO BE ASSIGNED","OBJECT_ID":"1999-025","CENTER_NAME":"EARTH","REF_FRAME":"TEME","TIME_SYSTEM":"UTC","MEAN_ELEMENT_THEORY":"SGP4","EPOCH":"2021-10-02T13:13:52.281984","MEAN_MOTION":"12.68472068","ECCENTRICITY":"0.00558710","INCLINATION":"101.8096","RA_OF_ASC_NODE":"24.8806","ARG_OF_PERICENTER":"31.7268","MEAN_ANOMALY":"342.2214","EPHEMERIS_TYPE":"0","CLASSIFICATION_TYPE":"U","NORAD_CAT_ID":"87569","ELEMENT_SET_NO":"999","REV_AT_EPOCH":"36419","BSTAR":"0.00002227200000","MEAN_MOTION_DOT":"-0.00000043","MEAN_MOTION_DDOT":"0.0000000000000","SEMIMAJOR_AXIS":"7766.307","PERIOD":"113.522","APOAPSIS":"1431.563","PERIAPSIS":"1344.781","OBJECT_TYPE":"TBA","RCS_SIZE":null,"COUNTRY_CODE":null,"LAUNCH_DATE":null,"SITE":null,"DECAY_DATE":null,"FILE":"3140729","GP_ID":"185993603","TLE_LINE0":"0 TBA - TO BE ASSIGNED","TLE_LINE1":"1 87569U 99025    21275.55129956 -.00000043 +00000+0 +22272-4 0  9995","TLE_LINE2":"2 87569 101.8096  24.8806 0055871  31.7268 342.2214 12.68472068364198"},{"CCSDS_OMM_VERS":"2.0","COMMENT":"GENERATED VIA SPACE-TRACK.ORG API","CREATION_DATE":"2021-10-01T17:51:17","ORIGINATOR":"18 SPCS","OBJECT_NAME":"TBA - TO BE ASSIGNED","OBJECT_ID":"1999-025","CENTER_NAME":"EARTH","REF_FRAME":"TEME","TIME_SYSTEM":"UTC","MEAN_ELEMENT_THEORY":"SGP4","EPOCH":"2021-10-01T07:19:48.419328","MEAN_MOTION":"14.00427389","ECCENTRICITY":"0.01830240","INCLINATION":"99.9694","RA_OF_ASC_NODE":"110.0082","ARG_OF_PERICENTER":"342.5532","MEAN_ANOMALY":"16.9395","EPHEMERIS_TYPE":"0","CLASSIFICATION_TYPE":"U","NORAD_CAT_ID":"87565","ELEMENT_SET_NO":"999","REV_AT_EPOCH":"40148","BSTAR":"0.00021860000000","MEAN_MOTION_DOT":"0.00000322","MEAN_MOTION_DDOT":"0.0000000000000","SEMIMAJOR_AXIS":"7270.453","PERIOD":"102.826","APOAPSIS":"1025.384","PERIAPSIS":"759.251","OBJECT_TYPE":"TBA","RCS_SIZE":null,"COUNTRY_CODE":null,"LAUNCH_DATE":null,"SITE":null,"DECAY_DATE":null,"FILE":"3138859","GP_ID":"185904776","TLE_LINE0":"0 TBA - TO BE ASSIGNED","TLE_LINE1":"1 87565U 99025    21274.30542152 +.00000322 +00000+0 +21860-3 0  9990","TLE_LINE2":"2 87565  99.9694 110.0082 0183024 342.5532  16.9395 14.00427389401481"}]